{
  "type": "FeatureCollection",
  "features": [
    {
      "type": "Feature",
      "properties": {
        "norad_id": 66940,
        "name": "STARLINK-36121",
        "group": "last-30-days",
        "lat": 33.856157045400835,
        "lon": 27.616081634465942,
        "alt_km": 356.3252430131215,
        "timestamp": "2025-12-23T07:45:08.118116+00:00",
        "meta_object_name": "STARLINK-36121",
        "meta_object_id": "2025-286R",
        "meta_epoch": "2025-12-22T22:00:03.000096",
        "meta_mean_motion": 15.70977564,
        "meta_eccentricity": 0.00011234,
        "meta_inclination": 53.159,
        "meta_ra_of_asc_node": 359.4232,
        "meta_arg_of_pericenter": 111.4276,
        "meta_mean_anomaly": 154.8281,
        "meta_ephemeris_type": 0,
        "meta_classification_type": "U",
        "meta_norad_cat_id": 66940,
        "meta_element_set_no": 999,
        "meta_rev_at_epoch": 362,
        "meta_bstar": -0.017080701,
        "meta_mean_motion_dot": -0.01933754,
        "meta_mean_motion_ddot": 0,
        "tle_line1": "1 66940U 25286R   25356.91670139 -.01933754  00000+0 -17081-1 0  9996",
        "tle_line2": "2 66940  53.1590 359.4232 0001123 111.4276 154.8281 15.70977564  3628"
      },
      "geometry": {
        "type": "Point",
        "coordinates": [
          27.616081634465942,
          33.856157045400835
        ]
      }
    },
    {
      "type": "Feature",
      "properties": {
        "norad_id": 66941,
        "name": "STARLINK-36088",
        "group": "last-30-days",
        "lat": 35.200556858100335,
        "lon": 29.346528038286124,
        "alt_km": 351.2506154935854,
        "timestamp": "2025-12-23T07:45:08.118126+00:00",
        "meta_object_name": "STARLINK-36088",
        "meta_object_id": "2025-286S",
        "meta_epoch": "2025-12-22T22:00:03.000096",
        "meta_mean_motion": 15.72644482,
        "meta_eccentricity": 9.413e-05,
        "meta_inclination": 53.159,
        "meta_ra_of_asc_node": 359.4246,
        "meta_arg_of_pericenter": 86.3272,
        "meta_mean_anomaly": 179.4305,
        "meta_ephemeris_type": 0,
        "meta_classification_type": "U",
        "meta_norad_cat_id": 66941,
        "meta_element_set_no": 999,
        "meta_rev_at_epoch": 362,
        "meta_bstar": -0.015747737,
        "meta_mean_motion_dot": -0.01878655,
        "meta_mean_motion_ddot": 0,
        "tle_line1": "1 66941U 25286S   25356.91670139 -.01878655  00000+0 -15748-1 0  9993",
        "tle_line2": "2 66941  53.1590 359.4246 0000941  86.3272 179.4305 15.72644482  3629"
      },
      "geometry": {
        "type": "Point",
        "coordinates": [
          29.346528038286124,
          35.200556858100335
        ]
      }
    },
    {
      "type": "Feature",
      "properties": {
        "norad_id": 66942,
        "name": "STARLINK-36100",
        "group": "last-30-days",
        "lat": 35.17298781635285,
        "lon": 29.309855808017144,
        "alt_km": 356.1022927727854,
        "timestamp": "2025-12-23T07:45:08.118138+00:00",
        "meta_object_name": "STARLINK-36100",
        "meta_object_id": "2025-286T",
        "meta_epoch": "2025-12-22T22:00:03.000096",
        "meta_mean_motion": 15.70980363,
        "meta_eccentricity": 0.00010217,
        "meta_inclination": 53.1589,
        "meta_ra_of_asc_node": 359.4193,
        "meta_arg_of_pericenter": 109.3379,
        "meta_mean_anomaly": 158.8338,
        "meta_ephemeris_type": 0,
        "meta_classification_type": "U",
        "meta_norad_cat_id": 66942,
        "meta_element_set_no": 999,
        "meta_rev_at_epoch": 355,
        "meta_bstar": -0.017118781,
        "meta_mean_motion_dot": -0.01937699,
        "meta_mean_motion_ddot": 0,
        "tle_line1": "1 66942U 25286T   25356.91670139 -.01937699  00000+0 -17119-1 0  9992",
        "tle_line2": "2 66942  53.1589 359.4193 0001021 109.3379 158.8338 15.70980363  3551"
      },
      "geometry": {
        "type": "Point",
        "coordinates": [
          29.309855808017144,
          35.17298781635285
        ]
      }
    },
    {
      "type": "Feature",
      "properties": {
        "norad_id": 66943,
        "name": "STARLINK-36109",
        "group": "last-30-days",
        "lat": 36.46419942169811,
        "lon": 31.056832982742595,
        "alt_km": 355.8422398932553,
        "timestamp": "2025-12-23T07:45:08.118150+00:00",
        "meta_object_name": "STARLINK-36109",
        "meta_object_id": "2025-286U",
        "meta_epoch": "2025-12-22T22:00:03.000096",
        "meta_mean_motion": 15.70978,
        "meta_eccentricity": 0.00010591,
        "meta_inclination": 53.159,
        "meta_ra_of_asc_node": 359.4151,
        "meta_arg_of_pericenter": 107.7629,
        "meta_mean_anomaly": 162.3266,
        "meta_ephemeris_type": 0,
        "meta_classification_type": "U",
        "meta_norad_cat_id": 66943,
        "meta_element_set_no": 999,
        "meta_rev_at_epoch": 355,
        "meta_bstar": -0.017086513,
        "meta_mean_motion_dot": -0.01934321,
        "meta_mean_motion_ddot": 0,
        "tle_line1": "1 66943U 25286U   25356.91670139 -.01934321  00000+0 -17087-1 0  9996",
        "tle_line2": "2 66943  53.1590 359.4151 0001059 107.7629 162.3266 15.70978000  3554"
      },
      "geometry": {
        "type": "Point",
        "coordinates": [
          31.056832982742595,
          36.46419942169811
        ]
      }
    },
    {
      "type": "Feature",
      "properties": {
        "norad_id": 66944,
        "name": "STARLINK-36112",
        "group": "last-30-days",
        "lat": 37.73039379967956,
        "lon": 32.8648762687141,
        "alt_km": 355.77228691516484,
        "timestamp": "2025-12-23T07:45:08.118160+00:00",
        "meta_object_name": "STARLINK-36112",
        "meta_object_id": "2025-286V",
        "meta_epoch": "2025-12-22T22:00:03.000096",
        "meta_mean_motion": 15.70973487,
        "meta_eccentricity": 0.0001131,
        "meta_inclination": 53.159,
        "meta_ra_of_asc_node": 359.411,
        "meta_arg_of_pericenter": 119.4787,
        "meta_mean_anomaly": 152.5497,
        "meta_ephemeris_type": 0,
        "meta_classification_type": "U",
        "meta_norad_cat_id": 66944,
        "meta_element_set_no": 999,
        "meta_rev_at_epoch": 362,
        "meta_bstar": -0.017254101,
        "meta_mean_motion_dot": -0.01950823,
        "meta_mean_motion_ddot": 0,
        "tle_line1": "1 66944U 25286V   25356.91670139 -.01950823  00000+0 -17254-1 0  9998",
        "tle_line2": "2 66944  53.1590 359.4110 0001131 119.4787 152.5497 15.70973487  3625"
      },
      "geometry": {
        "type": "Point",
        "coordinates": [
          32.8648762687141,
          37.73039379967956
        ]
      }
    },
    {
      "type": "Feature",
      "properties": {
        "norad_id": 66945,
        "name": "STARLINK-36110",
        "group": "last-30-days",
        "lat": 38.965080116529535,
        "lon": 34.7308753398161,
        "alt_km": 355.4312638003539,
        "timestamp": "2025-12-23T07:45:08.118169+00:00",
        "meta_object_name": "STARLINK-36110",
        "meta_object_id": "2025-286W",
        "meta_epoch": "2025-12-22T22:00:03.000096",
        "meta_mean_motion": 15.70978194,
        "meta_eccentricity": 0.00010483,
        "meta_inclination": 53.159,
        "meta_ra_of_asc_node": 359.407,
        "meta_arg_of_pericenter": 110.7312,
        "meta_mean_anomaly": 163.1908,
        "meta_ephemeris_type": 0,
        "meta_classification_type": "U",
        "meta_norad_cat_id": 66945,
        "meta_element_set_no": 999,
        "meta_rev_at_epoch": 362,
        "meta_bstar": -0.017083318,
        "meta_mean_motion_dot": -0.01934007,
        "meta_mean_motion_ddot": 0,
        "tle_line1": "1 66945U 25286W   25356.91670139 -.01934007  00000+0 -17083-1 0  9995",
        "tle_line2": "2 66945  53.1590 359.4070 0001048 110.7312 163.1908 15.70978194  3621"
      },
      "geometry": {
        "type": "Point",
        "coordinates": [
          34.7308753398161,
          38.965080116529535
        ]
      }
    },
    {
      "type": "Feature",
      "properties": {
        "norad_id": 66946,
        "name": "STARLINK-36115",
        "group": "last-30-days",
        "lat": 40.169629775889895,
        "lon": 36.66382704840654,
        "alt_km": 355.1101176737411,
        "timestamp": "2025-12-23T07:45:08.118179+00:00",
        "meta_object_name": "STARLINK-36115",
        "meta_object_id": "2025-286X",
        "meta_epoch": "2025-12-22T22:00:03.000096",
        "meta_mean_motion": 15.70976846,
        "meta_eccentricity": 0.00012074,
        "meta_inclination": 53.1589,
        "meta_ra_of_asc_node": 359.403,
        "meta_arg_of_pericenter": 106.2242,
        "meta_mean_anomaly": 169.6149,
        "meta_ephemeris_type": 0,
        "meta_classification_type": "U",
        "meta_norad_cat_id": 66946,
        "meta_element_set_no": 999,
        "meta_rev_at_epoch": 362,
        "meta_bstar": -0.017064733,
        "meta_mean_motion_dot": -0.01932163,
        "meta_mean_motion_ddot": 0,
        "tle_line1": "1 66946U 25286X   25356.91670139 -.01932163  00000+0 -17065-1 0  9997",
        "tle_line2": "2 66946  53.1589 359.4030 0001207 106.2242 169.6149 15.70976846  3625"
      },
      "geometry": {
        "type": "Point",
        "coordinates": [
          36.66382704840654,
          40.169629775889895
        ]
      }
    }
  ]
}